test-1
1 28922U 05051A   11041.52323853  .00000010  00000-0  10000-3 0  7850
2 28922   0.0000   0.0000 0000000   0.0000   0.0000 11.69476178 31797
test-2
1 28922U 05051A   11041.52323853  .00000010  00000-0  10000-3 0  7850
2 28922  90.0000   0.0000 0000000   0.0000   0.0000 11.69476178 31797
test-3
1 28922U 05051A   11041.52323853  .00000010  00000-0  10000-3 0  7850
2 28922  90.0000  90.0000 0000000   0.0000   0.0000 11.69476178 31797
